{"fetched_at":"2026-03-30T06:02:59Z","count":15439,"tles":[{"name":"2025-274D","line1":"1 66653U 25274D   26087.76582469  .00002296  00000+0  22898-3 0  9996","line2":"2 66653  97.7452  18.1334 0011019 262.5575  97.4393 14.92492665 18211","category":"Other"}]}